{
    "links": {
        "self": "http://www.neowsapp.com/rest/v1/neo/3788049?api_key=iIulBulltgU6a56xZRHN4H3l9WmuAYTsLGpBGhQ2"
    },
    "id": "3788049",
    "neo_reference_id": "3788049",
    "name": "(2017 UB6)",
    "designation": "2017 UB6",
    "nasa_jpl_url": "http://ssd.jpl.nasa.gov/sbdb.cgi?sstr=3788049",
    "absolute_magnitude_h": 27.2,
    "estimated_diameter": {
        "kilometers": {
            "estimated_diameter_min": 0.0096506147,
            "estimated_diameter_max": 0.0215794305
        },
        "meters": {
            "estimated_diameter_min": 9.6506146958,
            "estimated_diameter_max": 21.5794304844
        },
        "miles": {
            "estimated_diameter_min": 0.0059966121,
            "estimated_diameter_max": 0.0134088323
        },
        "feet": {
            "estimated_diameter_min": 31.6621227185,
            "estimated_diameter_max": 70.7986587106
        }
    },
    "is_potentially_hazardous_asteroid": false,
    "close_approach_data": [
        {
            "close_approach_date": "2017-10-28",
            "close_approach_date_full": "2017-Oct-28 02:19",
            "epoch_date_close_approach": 1509157140000,
            "relative_velocity": {
                "kilometers_per_second": "7.5318564911",
                "kilometers_per_hour": "27114.6833679956",
                "miles_per_hour": "16848.0097849637"
            },
            "miss_distance": {
                "astronomical": "0.0316662882",
                "lunar": "12.3181861098",
                "kilometers": "4737209.265526134",
                "miles": "2943565.3426592892"
            },
            "orbiting_body": "Earth"
        },
        {
            "close_approach_date": "2176-01-03",
            "close_approach_date_full": "2176-Jan-03 22:59",
            "epoch_date_close_approach": 6500991540000,
            "relative_velocity": {
                "kilometers_per_second": "21.2997528518",
                "kilometers_per_hour": "76679.110266466",
                "miles_per_hour": "47645.4171541827"
            },
            "miss_distance": {
                "astronomical": "0.4840920845",
                "lunar": "188.3118208705",
                "kilometers": "72419144.725060015",
                "miles": "44999169.892917607"
            },
            "orbiting_body": "Earth"
        }
    ],
    "orbital_data": {
        "orbit_id": "2",
        "orbit_determination_date": "2017-10-28 06:43:15",
        "first_observation_date": "2017-10-24",
        "last_observation_date": "2017-10-28",
        "data_arc_in_days": 4,
        "observations_used": 30,
        "orbit_uncertainty": "8",
        "minimum_orbit_intersection": ".0312473",
        "jupiter_tisserand_invariant": "3.380",
        "epoch_osculation": "2458051.5",
        "eccentricity": ".553980674163023",
        "semi_major_axis": "2.279536993682594",
        "inclination": "5.115852760778955",
        "ascending_node_longitude": "207.710448806761",
        "orbital_period": "1257.095853106562",
        "perihelion_distance": "1.01671755314276",
        "perihelion_argument": "197.767259311854",
        "aphelion_distance": "3.542356434222428",
        "perihelion_time": "2458063.485875393521",
        "mean_anomaly": "356.5675527995702",
        "mean_motion": ".2863743437784481",
        "equinox": "J2000",
        "orbit_class": {
            "orbit_class_type": "APO",
            "orbit_class_description": "Near-Earth asteroid orbits which cross the Earth’s orbit similar to that of 1862 Apollo",
            "orbit_class_range": "a (semi-major axis) > 1.0 AU; q (perihelion) < 1.017 AU"
        }
    },
    "is_sentry_object": false
}